{"type":"FeatureCollection","features":[{"type":"Feature","properties":{"region":"florida-keys","fips":"12087","zips":["33001","33036","33037","33040","33042","33043","33050","33051","33070"]},"geometry":{"type":"MultiPolygon","coordinates":[[[[-81.1656765506682,24.71551414157301],[-81.16850980415396,24.714425126037206],[-81.17314424039117,24.710794609114153],[-81.1747465071578,24.70840896158161],[-81.17618034581669,24.70300451940357],[-81.17440648499193,24.695445043207176],[-81.17288613057497,24.693160276844058],[-81.16852692403282,24.689618116387237],[-81.16300052644858,24.687880058374308],[-81.15930741929002,24.687896795746028],[-81.15647939896296,24.683267776292],[-81.15444284894728,24.681480672944186],[-81.1494472020174,24.679108720147823],[-81.09042177159404,24.663058419929015],[-81.08741997794709,24.66253977870998],[-81.08138606682456,24.66320879576973],[-81.07615299926142,24.666019467716893],[-81.07412050611715,24.668092901271798],[-81.05674356196096,24.68999292156218],[-81.03243735784197,24.692527178463468],[-81.02708541688779,24.694232385766657],[-80.96179927590174,24.728720165976352],[-80.94757388428606,24.736945705503043],[-80.90087661143454,24.73699144264956],[-80.89532825224855,24.737973456221155],[-80.89058554660396,24.740766968786154],[-80.88372303968633,24.746599189380827],[-80.86798011433052,24.754093487390275],[-80.86369610742943,24.757089790551003],[-80.86014229606405,24.763653573383486],[-80.8599056995566,24.778199325208167],[-80.82098929584107,24.794638421464033],[-80.79106677177145,24.795197347628758],[-80.78526099894152,24.796387413740405],[-80.78043520350536,24.799550100030935],[-80.76966375003494,24.81524780538851],[-80.75610113981202,24.820046606697147],[-80.74945464327004,24.818707991387097],[-80.74133829434683,24.820580720704882],[-80.7362697039246,24.8243070245169],[-80.73255614575659,24.83052559500542],[-80.72322209247403,24.835320609068038],[-80.71725374317766,24.842365517852194],[-80.70006659851003,24.849643076804153],[-80.69125904788064,24.856666102724052],[-80.66539249478934,24.85678657417828],[-80.66000698081422,24.85878226740006],[-80.65640078311564,24.861925862916497],[-80.64848427422429,24.864014889296023],[-80.643034559604,24.869586252206403],[-80.63827993269267,24.87310801996461],[-80.63669235377179,24.87533065491163],[-80.6350865676031,24.880396753035228],[-80.63513032178463,24.883044940405703],[-80.63684958169601,24.887953241389404],[-80.6124578345319,24.908756030727645],[-80.577694828789,24.93115674199594],[-80.5510771891809,24.941230020591917],[-80.52882839816499,24.962983994299602],[-80.51144584944011,24.970698514031366],[-80.48990840786074,24.983011974143867],[-80.48653593792919,24.9871683386574],[-80.48352754814856,24.99293440525177],[-80.45993911415557,25.023500747304443],[-80.43649245668823,25.024279962420504],[-80.41573499834134,25.026564674489904],[-80.41017169325627,25.02824473967551],[-80.40575578959454,25.031740918618553],[-80.40317238559741,25.036510894358],[-80.40270633628033,25.039147033903486],[-80.40351627757417,25.04440937739466],[-80.40476061207903,25.046829437780026],[-80.40802519258763,25.050413155626856],[-80.42437669524602,25.063098347107314],[-80.41209929342652,25.0755291161331],[-80.39808320009261,25.081847586267198],[-80.37249500345573,25.10574903550502],[-80.36669924753897,25.108004987902504],[-80.3583194412937,25.115553601038417],[-80.33143665325953,25.163174557160215],[-80.32144161709432,25.192785405671888],[-80.28843703646645,25.24628356436254],[-80.24691711045146,25.307636422478534],[-80.22261973953911,25.330200862321774],[-80.22042570380121,25.33489986595528],[-80.22010316236377,25.337444900110555],[-80.22106493300433,25.3424704182086],[-80.22231462026222,25.344769643577308],[-80.2261279696893,25.348529344200394],[-80.22855410694358,25.34985419335519],[-80.24135306922302,25.353509864697013],[-80.24352732975716,25.35737247547091],[-80.24691468251444,25.361050982483825],[-80.25514565489401,25.36579345700518],[-80.26339249968474,25.367783027784704],[-80.2693907338054,25.367311657699087],[-80.2725684351058,25.366163015132184],[-80.37836849500248,25.32246478227839],[-80.38927925574264,25.31569081078988],[-80.39117449095797,25.313721111978197],[-80.39354531043959,25.30898718314807],[-80.39412741865523,25.29323232781051],[-80.40760250299246,25.280269047599685],[-80.40973901984218,25.275442585201645],[-80.40995195916615,25.26695168216517],[-80.41374220426133,25.266717396275144],[-80.4190320188647,25.264805991143508],[-80.42127778825366,25.263202496919927],[-80.430178330898,25.2532636097689],[-80.43528207007283,25.25623057709473],[-80.43946074303331,25.25739971580018],[-80.448359996712,25.257153996237424],[-80.45391584016626,25.25452991656229],[-80.45570894109868,25.2528660990016],[-80.46158783211933,25.25150692369754],[-80.47281507497318,25.24720453541669],[-80.47778993432962,25.2441780835927],[-80.48442226895483,25.24188305163214],[-80.48835527286225,25.242287532817222],[-80.49400353589971,25.241575755776974],[-80.50060350623832,25.23928876285017],[-80.50570442747406,25.235673141799193],[-80.50971606692093,25.229568879593774],[-80.51095058532407,25.223986215606292],[-80.50964868919614,25.21378250030436],[-80.50746700188367,25.208794288058527],[-80.50074304162605,25.202598051010064],[-80.49030425517003,25.199001607488484],[-80.48449595212641,25.198956124615993],[-80.48151164786401,25.199700581028548],[-80.47876153059534,25.200986568584767],[-80.47412141470295,25.205015809098796],[-80.4707916489891,25.20105404633392],[-80.467162869387,25.19865020683701],[-80.4608562902549,25.19070412153306],[-80.45494635148104,25.18702626868724],[-80.46216832575661,25.178415612402514],[-80.46305758557384,25.17569878448999],[-80.46295180406405,25.170319619055377],[-80.46201507728274,25.167752367770845],[-80.45856074254758,25.163373994290474],[-80.43922445726369,25.147068784710168],[-80.44058257053348,25.142134974786444],[-80.44868662620988,25.14102566758741],[-80.45491252586935,25.136681145453256],[-80.45924621133261,25.13107861770257],[-80.46142484065149,25.12582984911413],[-80.48000076756996,25.10111346186406],[-80.48513525376256,25.091510283600613],[-80.50687474069161,25.079502880387462],[-80.52803916894375,25.070399324890403],[-80.53247444209187,25.06748085137035],[-80.53544320265556,25.063306518027467],[-80.53654326969485,25.058442051949505],[-80.53347345886905,25.040677554673636],[-80.54140019477715,25.0360042657621],[-80.54593405011245,25.034283613774456],[-80.55935183721272,25.026171454414218],[-80.56957094884083,25.015994700579117],[-80.57563913618463,25.00636586386467],[-80.64358671109179,24.976399221074313],[-80.6668529623262,24.95455333037547],[-80.67866485218008,24.950621979238004],[-80.73262858558662,24.92421291647496],[-80.73767373953153,24.920173318203084],[-80.74497116460081,24.910888284608028],[-80.81163940170556,24.877324305648894],[-80.81624445198838,24.873752693968328],[-80.81889650938332,24.86881096023509],[-80.8191554687647,24.86331963511447],[-80.81645802627928,24.856176295084317],[-80.86414041573865,24.82573293591493],[-80.87942452487961,24.821180931273524],[-80.88437442950946,24.818610051199908],[-80.91344970364503,24.815901962089104],[-80.91839890309029,24.814628042382584],[-80.93586951855323,24.803454233303018],[-80.9831326522579,24.781688604574484],[-80.99013222188864,24.779342091609365],[-81.00488963281455,24.777390076920394],[-81.02865942978592,24.763607596983352],[-81.04005552759271,24.76550559265845],[-81.04522086850007,24.76478582186522],[-81.07394293262477,24.75057347506671],[-81.08792683195348,24.745752098894112],[-81.1088674597345,24.73700893861745],[-81.14281464270879,24.737850731158954],[-81.14848861160766,24.736977742407337],[-81.153371107174,24.7342112559811],[-81.15672903362518,24.729966694524983],[-81.15805836865619,24.724881381808583],[-81.15846812655889,24.717928398836943],[-81.1656765506682,24.71551414157301]]],[[[-82.21355987888427,24.55846181773531],[-82.21677478817325,24.554018187951684],[-82.21785092960042,24.54878963874471],[-82.21662122211936,24.543589240192937],[-82.21327713112161,24.539225588247902],[-82.20620996245226,24.534907282596635],[-82.18639450230644,24.525741749005558],[-82.17549147034252,24.521906894472416],[-82.170764496736,24.52104358317269],[-82.15535915826793,24.520554625696754],[-82.1390148108589,24.522406294254136],[-82.12465064334758,24.522558281395373],[-82.11469703254662,24.52355589135056],[-82.1080884091978,24.527052146827355],[-82.0902297467671,24.543361870161537],[-82.01976851774053,24.50622635204929],[-82.01227722898079,24.504407408610486],[-81.99703473508416,24.50456019072585],[-81.99085107473473,24.50714262861809],[-81.9797607986189,24.50453019884847],[-81.94543724136734,24.503993387096994],[-81.92326966368812,24.505673920139884],[-81.89329649289802,24.514053618622782],[-81.87367698510157,24.52240379242516],[-81.86858641692494,24.525871438182325],[-81.81379307906592,24.527405680344224],[-81.79377651663073,24.527068324975986],[-81.77698066362612,24.52820602818381],[-81.76948891828431,24.531131835486573],[-81.74786829675925,24.52856961686933],[-81.74124470563027,24.530317623449154],[-81.70279611889715,24.534376299602926],[-81.67756558586437,24.540239679172043],[-81.6599618538782,24.54664767219462],[-81.65453265459924,24.552089440977397],[-81.65304817194264,24.556834880960714],[-81.6532722626241,24.56081617138988],[-81.65172837098793,24.561446334680625],[-81.63987124470817,24.562493605559915],[-81.6351227712472,24.556802683205785],[-81.62796221032279,24.553315580476042],[-81.61655991180449,24.552781023492727],[-81.6063217578848,24.554385097764637],[-81.58745895575497,24.559217896862965],[-81.57668817284518,24.565113717107558],[-81.56960977019762,24.57271856333333],[-81.56195825778289,24.578093338626484],[-81.55195973629537,24.58184692712338],[-81.49651241704603,24.592551573696223],[-81.49164556259942,24.59568048435392],[-81.4898279127448,24.597845565473495],[-81.48779172242054,24.602939309814232],[-81.48905787027938,24.62865217671194],[-81.473747538204,24.628815840657246],[-81.47112790285124,24.620933477776436],[-81.46935689772232,24.618850879279034],[-81.4646646255182,24.615808442918],[-81.43780873038867,24.6098598551071],[-81.41640122783022,24.601054607898355],[-81.40810376420154,24.600308453653106],[-81.36332136490014,24.60797264264713],[-81.32203352142243,24.62623067269604],[-81.28122150982263,24.636944522763702],[-81.24445323076002,24.650311459358743],[-81.23942248482643,24.653250071908655],[-81.2374969995445,24.655347530762004],[-81.23209637428798,24.664819672638785],[-81.22733188913796,24.668884399404796],[-81.22157616597295,24.670329634426487],[-81.21773872070541,24.6729299950742],[-81.21533650861518,24.67586590394445],[-81.21361914439821,24.679944119042382],[-81.21389452294439,24.75298746745492],[-81.21609788212436,24.75787444612794],[-81.21794445443975,24.75993062139594],[-81.22277301366036,24.762873631195163],[-81.22556818277126,24.763646586383018],[-81.24980123473439,24.76390775292173],[-81.25548667635951,24.7628802193998],[-81.25805501420203,24.761633122434013],[-81.26215303698979,24.75791015870969],[-81.26436977286491,24.753046389082108],[-81.26465423862581,24.750259368844986],[-81.27427741540544,24.760630582040026],[-81.27881743321699,24.763087651881413],[-81.28401753745483,24.763945758477224],[-81.3050440622655,24.76370725712015],[-81.31038262517278,24.761713970981976],[-81.31263128130853,24.760051169927326],[-81.31586213207298,24.755707730182873],[-81.31672123635313,24.753192633851135],[-81.31676450361586,24.74795128692896],[-81.31440916272773,24.74243065141362],[-81.32214113275232,24.7424059393161],[-81.32757792281508,24.747169593030673],[-81.33209163772443,24.74985512398174],[-81.33862027837354,24.759226470818284],[-81.3407348546055,24.761022208332268],[-81.34136171651018,24.78275759610246],[-81.34379110481576,24.787723840984665],[-81.3457795617174,24.789773136656592],[-81.36462386795274,24.80031447180599],[-81.40131682723326,24.814861932245606],[-81.40931200826796,24.81585996402861],[-81.41670281716767,24.812917822949338],[-81.45179129619737,24.786420535153418],[-81.45446129962325,24.782146813609284],[-81.4556946167155,24.772087569839535],[-81.45468999722881,24.766921787301985],[-81.45243820954144,24.763477174679455],[-81.49114767894685,24.76389478880686],[-81.49663299395621,24.76293361288794],[-81.50133932850073,24.76020057966188],[-81.50460104860112,24.756082272737313],[-81.50566646808126,24.752899682494952],[-81.51074672081053,24.74730514123431],[-81.51211263510557,24.74236997184328],[-81.51242567733483,24.737346590709247],[-81.52039085052179,24.73260850807477],[-81.52465931312246,24.728870044909534],[-81.53271360918603,24.71865501595438],[-81.53728711912424,24.71061523878241],[-81.54041869509325,24.707837103051425],[-81.54876939737142,24.709370738530932],[-81.55538001159897,24.720660962691834],[-81.56162498723221,24.729563209626427],[-81.56551183695657,24.733286958265293],[-81.58942906050757,24.743018791911812],[-81.59762226110645,24.74253519340683],[-81.60237481871644,24.739996538685013],[-81.60632838017641,24.734831886790143],[-81.61240792562478,24.734557219845836],[-81.62522375517686,24.731790563760143],[-81.63521169999575,24.726366186535124],[-81.63850447290001,24.72195624356664],[-81.63966026190374,24.71673216276922],[-81.63966649334674,24.638921763155334],[-81.64138906454012,24.634244143246598],[-81.64743623000562,24.63778929433221],[-81.65335870171032,24.638911799464942],[-81.73437543621363,24.638683347513233],[-81.73944183365481,24.636906060534567],[-81.74364326180843,24.63344375158393],[-81.74608597253012,24.62902908264369],[-81.7466128204513,24.624096283961883],[-81.75335628506781,24.62398151745619],[-81.75908622522881,24.621347338511775],[-81.77035475091408,24.631070389589276],[-81.78130999186837,24.635310110978192],[-81.78321338425091,24.647167815836188],[-81.7860470939751,24.651727584314262],[-81.78813816618575,24.65354696839315],[-81.79327405629043,24.65592125787192],[-81.79612347151583,24.656385823363543],[-81.81122227279242,24.654935894531466],[-81.83319013369315,24.649645543107688],[-81.83789653943766,24.646421681673694],[-81.83962957706645,24.644239086996887],[-81.84151314329716,24.639163661376042],[-81.84373028186594,24.62318344919816],[-81.84327726540552,24.617793836258844],[-81.84053337901545,24.61299856252727],[-81.83593934375044,24.60956744631796],[-81.83023271838962,24.608051257019106],[-81.82091569629658,24.607349501818803],[-81.82428290755796,24.595923641937766],[-81.87080486102894,24.610931777350636],[-81.89040657273618,24.62414852857605],[-81.89880207135897,24.63135659903741],[-81.90436022288307,24.633359672364655],[-81.91033693932057,24.63320608524935],[-81.91576175511067,24.630920777408782],[-82.00195928805411,24.57291616264721],[-82.11926536315289,24.61605966424502],[-82.12589084147282,24.61700662549443],[-82.13275249368908,24.61650845521608],[-82.14776263661734,24.613893405306392],[-82.16021897850162,24.608863369425816],[-82.16432954731681,24.606388547360982],[-82.17765916613908,24.594934766774447],[-82.2019935723484,24.569084302491866],[-82.21355987888427,24.55846181773531]]],[[[-82.88967123441746,24.632239821460058],[-82.88949760196914,24.625639285582587],[-82.88584739822862,24.61850704543034],[-82.8822414902049,24.615437957729494],[-82.87628044659732,24.612821024228566],[-82.86978969456207,24.612742165446708],[-82.8644250251031,24.614769957278966],[-82.85962227195104,24.61927374354081],[-82.85687600150975,24.624233357208823],[-82.85617598363149,24.627170462594673],[-82.85600437650709,24.63150148717143],[-82.85785386538733,24.636751632831633],[-82.86206104923147,24.641027637018137],[-82.86837927656461,24.643649007836505],[-82.87574768211182,24.643854945117784],[-82.88070978709641,24.642171199850562],[-82.88735243816393,24.637163322239356],[-82.88967123441746,24.632239821460058]]]]}}]}